0 FENGYUN 1C DEB
1 30879U 99025AXR 13291.17736294  .00014124  00000-0  52145-2 0   685
2 30879 099.3728 259.3612 0466652 001.8309 060.3680 13.85821234335174
0 FENGYUN 1C DEB
1 30879U 99025AXR 13294.13573181  .00015832  00000-0  58350-2 0   690
2 30879 099.3741 262.3347 0466470 353.9340 059.9560 13.85899575335581
